STARLINK-37640          
1 69447U 26127E   26181.50002315 -.00021953  00000+0 -13932-3 0  9994
2 69447  53.1582 195.8827 0001088  82.5234  81.0945 15.75253423  4780
STARLINK-37572          
1 69448U 26127F   26181.42624594  .00125284  00000+0  80854-3 0  9992
2 69448  53.1587 196.4613 0001351  84.8256 275.2919 15.75263211  3499
STARLINK-37643          
1 69449U 26127G   26181.49422800  .00185626  00000+0  11859-2 0  9990
2 69449  53.1589 196.1763 0001058 126.6085 233.5033 15.75294010  3501
STARLINK-37601          
1 69450U 26127H   26181.49390372  .00175873  00000+0  11254-2 0  9992
2 69450  53.1590 196.1732 0001889  92.7530 267.3706 15.75286276  3508
STARLINK-37578          
1 69451U 26127J   26181.54372929  .00127682  00000+0  82284-3 0  9994
2 69451  53.1568 195.7672 0001352  92.4581 267.6594 15.75287350  3513
STARLINK-37577          
1 69452U 26127K   26181.53011213  .00170521  00000+0  10916-2 0  9992
2 69452  53.1587 195.6766 0001154 105.8004 254.3144 15.75295896  3515
STARLINK-37500          
1 69453U 26127L   26181.53951804  .00200043  00000+0  12745-2 0  9997
2 69453  53.1566 195.7402 0001057 113.3778 246.7353 15.75311867  3519
STARLINK-37575          
1 69454U 26127M   26181.52590265  .00110423  00000+0  71397-3 0  9998
2 69454  53.1589 195.6484 0001048  92.9963 267.1177 15.75276676  3511
STARLINK-37642          
1 69455U 26127N   26181.54405778  .00177548  00000+0  11353-2 0  9991
2 69455  53.1564 195.7692 0001175  84.5562 275.5592 15.75298538  3515
STARLINK-37513          
1 69456U 26127P   26181.56498326  .00225542  00000+0  11118-2 0  9992
2 69456  53.1557 195.1684 0000800  95.4885 264.6229 15.80967684  3524
STARLINK-37563          
1 69457U 26127Q   26181.53044160  .00099888  00000+0  64723-3 0  9996
2 69457  53.1587 195.6773 0001252  85.7550 274.3614 15.75270352  3513
STARLINK-37565          
1 69458U 26127R   26181.52103699  .00092824  00000+0  60243-3 0  9995
2 69458  53.1584 195.6142 0001244  82.7363 277.3798 15.75263347  3513
STARLINK-37498          
1 69459U 26127S   26181.53918889  .00177807  00000+0  11364-2 0  9996
2 69459  53.1563 195.7350 0001126 107.0684 253.0460 15.75308321  3518
STARLINK-37384          
1 69460U 26127T   26181.52556963  .00130835  00000+0  84252-3 0  9995
2 69460  53.1586 195.6449 0001183 139.4668 220.6441 15.75293507  3515
STARLINK-37707          
1 69461U 26127U   26181.52136389  .00219309  00000+0  13934-2 0  9994
2 69461  53.1584 195.6157 0001037  93.1580 266.9559 15.75315771  3518
STARLINK-37525          
1 69462U 26127V   26181.51649662  .00093617  00000+0  60754-3 0  9992
2 69462  53.1577 195.5822 0001165 106.3725 253.7423 15.75261430  3515
STARLINK-37526          
1 69463U 26127W   26181.51228912  .00112277  00000+0  72614-3 0  9996
2 69463  53.1573 195.5552 0001534  66.6555 293.4627 15.75263137  3514
STARLINK-37574          
1 69464U 26127X   26181.51682380  .00125502  00000+0  80922-3 0  9996
2 69464  53.1576 195.5830 0001035  93.4743 266.6396 15.75283356  3510
STARLINK-37535          
1 69465U 26127Y   26181.51195731  .00133539  00000+0  85995-3 0  9990
2 69465  53.1565 195.5508 0001122  97.9590 262.1558 15.75283380  3515
STARLINK-37583          
1 69466U 26127Z   26181.50002315 -.00036822  00000+0 -23692-3 0  9990
2 69466  53.1584 195.2988 0001727  92.5056 352.5463 15.75251616  4781
STARLINK-37546          
1 69467U 26127AA  26181.25396308  .00206281  00000+0  13144-2 0  9997
2 69467  53.1564 196.7822 0001378 132.6701 227.4436 15.75288647  3477
STARLINK-37532          
1 69468U 26127AB  26181.53774613  .00180039  00000+0  89367-3 0  9991
2 69468  53.1565 194.9831 0001156  82.9736 277.1419 15.80949136  3520
STARLINK-37708          
1 69469U 26127AC  26181.50741924  .00141574  00000+0  91087-3 0  9991
2 69469  53.1561 195.5164 0001289  86.0864 274.0304 15.75275877  3513
STARLINK-37686          
1 69470U 26127AD  26181.50320720  .00167063  00000+0  10701-2 0  9994
2 69470  53.1575 195.4897 0001327 127.1363 232.9779 15.75291711  3510
STARLINK-37451          
1 69471U 26127AE  26181.34269865  .00196997  00000+0  97645-3 0  9990
2 69471  53.1568 195.8974 0001637  42.4934 317.6215 15.80929904  3491
DTC TEST OBJECT A       
1 69472U 26128A   26181.59257354  .00023228  00000+0  32804-3 0  9991
2 69472  54.9920 243.0721 0010283 335.1800  24.8740 15.56466739  3316
DTC TEST OBJECT B       
1 69473U 26128B   26178.37654890  .00024134  00000+0  33565-3 0  9992
2 69473  55.0021 257.9040 0009934 325.3113  34.7274 15.56860342  2801
TJS-25                  
1 69474U 26129A   26180.86927858 -.00000355  00000+0  00000+0 0  9992
2 69474   5.9710 330.2743 0002232 293.5561  87.3179  1.00272023   198
STARLINK-37816          
1 69478U 26131A   26181.35519926  .00093438  00000+0  48229-3 0  9999
2 69478  97.2840 202.3969 0001000 168.0107 192.1185 15.80864182  4241
STARLINK-37878          
1 69479U 26131B   26181.23421067  .00195156  00000+0  99328-3 0  9991
2 69479  97.2841 202.2547 0000336  61.8744 298.2558 15.80896732  4228
