OBJECT_NAME,OBJECT_ID,EPOCH,MEAN_MOTION,ECCENTRICITY,INCLINATION,RA_OF_ASC_NODE,ARG_OF_PERICENTER,MEAN_ANOMALY,EPHEMERIS_TYPE,CLASSIFICATION_TYPE,NORAD_CAT_ID,ELEMENT_SET_NO,REV_AT_EPOCH,BSTAR,MEAN_MOTION_DOT,MEAN_MOTION_DDOT
STARLINK-37640,2026-127E,2026-06-30T12:00:02.000160,15.75253423,.00010884,53.1582,195.8827,82.5234,81.0945,0,U,69447,999,478,-.13932282E-3,-.21953E-3,0
STARLINK-37572,2026-127F,2026-06-30T10:13:47.649216,15.75263211,.00013513,53.1587,196.4613,84.8256,275.2919,0,U,69448,999,349,.80854321E-3,.125284E-2,0
STARLINK-37643,2026-127G,2026-06-30T11:51:41.299200,15.75294010,.0001058,53.1589,196.1763,126.6085,233.5033,0,U,69449,999,350,.11858563E-2,.185626E-2,0
STARLINK-37601,2026-127H,2026-06-30T11:51:13.281408,15.75286276,.0001889,53.1590,196.1732,92.7530,267.3706,0,U,69450,999,350,.11254241E-2,.175873E-2,0
STARLINK-37578,2026-127J,2026-06-30T13:02:58.210656,15.75287350,.00013529,53.1568,195.7672,92.4581,267.6594,0,U,69451,999,351,.82284162E-3,.127682E-2,0
STARLINK-37577,2026-127K,2026-06-30T12:43:21.688032,15.75295896,.00011544,53.1587,195.6766,105.8004,254.3144,0,U,69452,999,351,.1091563E-2,.170521E-2,0
STARLINK-37500,2026-127L,2026-06-30T12:56:54.358656,15.75311867,.00010578,53.1566,195.7402,113.3778,246.7353,0,U,69453,999,351,.12744539E-2,.200043E-2,0
STARLINK-37575,2026-127M,2026-06-30T12:37:17.988960,15.75276676,.00010484,53.1589,195.6484,92.9963,267.1177,0,U,69454,999,351,.71396737E-3,.110423E-2,0
STARLINK-37642,2026-127N,2026-06-30T13:03:26.592192,15.75298538,.00011751,53.1564,195.7692,84.5562,275.5592,0,U,69455,999,351,.11352911E-2,.177548E-2,0
STARLINK-37513,2026-127P,2026-06-30T13:33:34.553664,15.80967684,.00008,53.1557,195.1684,95.4885,264.6229,0,U,69456,999,352,.11117819E-2,.225542E-2,0
STARLINK-37563,2026-127Q,2026-06-30T12:43:50.154240,15.75270352,.00012524,53.1587,195.6773,85.7550,274.3614,0,U,69457,999,351,.64722927E-3,.99888E-3,0
STARLINK-37565,2026-127R,2026-06-30T12:30:17.595936,15.75263347,.00012441,53.1584,195.6142,82.7363,277.3798,0,U,69458,999,351,.60243448E-3,.92824E-3,0
STARLINK-37498,2026-127S,2026-06-30T12:56:25.920096,15.75308321,.00011268,53.1563,195.7350,107.0684,253.0460,0,U,69459,999,351,.11364219E-2,.177807E-2,0
STARLINK-37384,2026-127T,2026-06-30T12:36:49.216032,15.75293507,.00011835,53.1586,195.6449,139.4668,220.6441,0,U,69460,999,351,.84251833E-3,.130835E-2,0
STARLINK-37707,2026-127U,2026-06-30T12:30:45.840096,15.75315771,.00010375,53.1584,195.6157,93.1580,266.9559,0,U,69461,999,351,.13933669E-2,.219309E-2,0
STARLINK-37525,2026-127V,2026-06-30T12:23:45.307968,15.75261430,.00011654,53.1577,195.5822,106.3725,253.7423,0,U,69462,999,351,.607539E-3,.93617E-3,0
STARLINK-37526,2026-127W,2026-06-30T12:17:41.779968,15.75263137,.00015349,53.1573,195.5552,66.6555,293.4627,0,U,69463,999,351,.72614351E-3,.112277E-2,0
STARLINK-37574,2026-127X,2026-06-30T12:24:13.576320,15.75283356,.0001035,53.1576,195.5830,93.4743,266.6396,0,U,69464,999,351,.80921749E-3,.125502E-2,0
STARLINK-37535,2026-127Y,2026-06-30T12:17:13.111584,15.75283380,.00011229,53.1565,195.5508,97.9590,262.1558,0,U,69465,999,351,.85994897E-3,.133539E-2,0
STARLINK-37583,2026-127Z,2026-06-30T12:00:02.000160,15.75251616,.00017277,53.1584,195.2988,92.5056,352.5463,0,U,69466,999,478,-.23692069E-3,-.36822E-3,0
STARLINK-37546,2026-127AA,2026-06-30T06:05:42.410112,15.75288647,.0001378,53.1564,196.7822,132.6701,227.4436,0,U,69467,999,347,.13144209E-2,.206281E-2,0
STARLINK-37532,2026-127AB,2026-06-30T12:54:21.265632,15.80949136,.00011568,53.1565,194.9831,82.9736,277.1419,0,U,69468,999,352,.8936744E-3,.180039E-2,0
STARLINK-37708,2026-127AC,2026-06-30T12:10:41.022336,15.75275877,.00012896,53.1561,195.5164,86.0864,274.0304,0,U,69469,999,351,.91086898E-3,.141574E-2,0
STARLINK-37686,2026-127AD,2026-06-30T12:04:37.102080,15.75291711,.00013276,53.1575,195.4897,127.1363,232.9779,0,U,69470,999,351,.10701424E-2,.167063E-2,0
STARLINK-37451,2026-127AE,2026-06-30T08:13:29.163360,15.80929904,.00016372,53.1568,195.8974,42.4934,317.6215,0,U,69471,999,349,.9764474E-3,.196997E-2,0
DTC TEST OBJECT A,2026-128A,2026-06-30T14:13:18.353856,15.56466739,.00102834,54.9920,243.0721,335.1800,24.8740,0,U,69472,999,331,.32803973E-3,.23228E-3,0
DTC TEST OBJECT B,2026-128B,2026-06-27T09:02:13.824960,15.56860342,.0009934,55.0021,257.9040,325.3113,34.7274,0,U,69473,999,280,.3356545E-3,.24134E-3,0
TJS-25,2026-129A,2026-06-29T20:51:45.669312,1.00272023,.00022326,5.9710,330.2743,293.5561,87.3179,0,U,69474,999,19,0,-.355E-5,0
STARLINK-37816,2026-131A,2026-06-30T08:31:29.216064,15.80864182,.00010008,97.2840,202.3969,168.0107,192.1185,0,U,69478,999,424,.48229006E-3,.93438E-3,0
STARLINK-37878,2026-131B,2026-06-30T05:37:15.801888,15.80896732,.00003368,97.2841,202.2547,61.8744,298.2558,0,U,69479,999,422,.99328298E-3,.195156E-2,0
